CTC1_L_00525001-01
1 75375U 24056BX  26070.40839120  .00000000  00000+0  00000-0 0  9995
2 75375  98.4000   0.0000 0000000   0.0000   0.0000 14.41059505    15
CTC1_L_00525002-01
1 75376U 24467OC  26070.40839120  .00000000  00000+0  00000-0 0  9992
2 75376  98.4000  12.0000 0000000   0.0000  48.0000 14.41059505    11
CTC1_L_00525003-01
1 75377U 26086IP  26070.40839120  .00000000  00000+0  00000-0 0  9992
2 75377  98.4000  24.0000 0000000   0.0000  96.0000 14.41059505    18
CTC1_L_00525004-01
1 75378U 22367VV  26070.40839120  .00000000  00000+0  00000-0 0  9991
2 75378  98.4000  36.0000 0000000   0.0000 144.0000 14.41059505    16
CTC1_L_00525005-01
1 75379U 26415YK  26070.40839120  .00000000  00000+0  00000-0 0  9990
2 75379  98.4000  48.0000 0000000   0.0000 192.0000 14.41059505    13
CTC1_L_00525006-01
1 75380U 22792HV  26070.40839120  .00000000  00000+0  00000-0 0  9996
2 75380  98.4000  60.0000 0000000   0.0000 240.0000 14.41059505    13
CTC1_L_00525007-01
1 75381U 23731FF  26070.40839120  .00000000  00000+0  00000-0 0  9991
2 75381  98.4000  72.0000 0000000   0.0000 288.0000 14.41059505    19
CTC1_L_00525008-01
1 75382U 24549DM  26070.40839120  .00000000  00000+0  00000-0 0  9990
2 75382  98.4000  84.0000 0000000   0.0000 336.0000 14.41059505    17
CTC1_L_00525009-01
1 75383U 26670QI  26070.40839120  .00000000  00000+0  00000-0 0  9998
2 75383  98.4000  96.0000 0000000   0.0000  24.0000 14.41059505    15
CTC1_L_00525010-01
1 75384U 24046GS  26070.40839120  .00000000  00000+0  00000-0 0  9994
2 75384  98.4000 108.0000 0000000   0.0000  72.0000 14.41059505    13
CTC1_L_00525011-01
1 75385U 25310EO  26070.40839120  .00000000  00000+0  00000-0 0  9990
2 75385  98.4000 120.0000 0000000   0.0000 120.0000 14.41059505    12
CTC1_L_00525012-01
1 75386U 26225OU  26070.40839120  .00000000  00000+0  00000-0 0  9997
2 75386  98.4000 132.0000 0000000   0.0000 168.0000 14.41059505    18
CTC1_L_00525013-01
1 75387U 23746EO  26070.40839120  .00000000  00000+0  00000-0 0  9993
2 75387  98.4000 144.0000 0000000   0.0000 216.0000 14.41059505    16
CTC1_L_00525014-01
1 75388U 23596NM  26070.40839120  .00000000  00000+0  00000-0 0  9997
2 75388  98.4000 156.0000 0000000   0.0000 264.0000 14.41059505    13
CTC1_L_00525015-01
1 75389U 26333CM  26070.40839120  .00000000  00000+0  00000-0 0  9990
2 75389  98.4000 168.0000 0000000   0.0000 312.0000 14.41059505    11
CTC1_L_00525016-01
1 75390U 24051FG  26070.40839120  .00000000  00000+0  00000-0 0  9997
2 75390  98.4000 180.0000 0000000   0.0000   0.0000 14.41059505    11
CTC1_L_00525017-01
1 75391U 25779NE  26070.40839120  .00000000  00000+0  00000-0 0  9996
2 75391  98.4000 192.0000 0000000   0.0000  48.0000 14.41059505    17
CTC1_L_00525018-01
1 75392U 26044NA  26070.40839120  .00000000  00000+0  00000-0 0  9993
2 75392  98.4000 204.0000 0000000   0.0000  96.0000 14.41059505    15
CTC1_L_00525019-01
1 75393U 22641KN  26070.40839120  .00000000  00000+0  00000-0 0  9993
2 75393  98.4000 216.0000 0000000   0.0000 144.0000 14.41059505    13
CTC1_L_00525020-01
1 75394U 26984ZB  26070.40839120  .00000000  00000+0  00000-0 0  9998
2 75394  98.4000 228.0000 0000000   0.0000 192.0000 14.41059505    10
CTC1_L_00525021-01
1 75395U 24122FI  26070.40839120  .00000000  00000+0  00000-0 0  9991
2 75395  98.4000 240.0000 0000000   0.0000 240.0000 14.41059505    19
CTC1_L_00525022-01
1 75396U 23109HS  26070.40839120  .00000000  00000+0  00000-0 0  9996
2 75396  98.4000 252.0000 0000000   0.0000 288.0000 14.41059505    15
CTC1_L_00525023-01
1 75397U 24446FR  26070.40839120  .00000000  00000+0  00000-0 0  9992
2 75397  98.4000 264.0000 0000000   0.0000 336.0000 14.41059505    13
CTC1_L_00525024-01
1 75398U 25898YK  26070.40839120  .00000000  00000+0  00000-0 0  9995
2 75398  98.4000 276.0000 0000000   0.0000  24.0000 14.41059505    11
CTC1_L_00525025-01
1 75399U 25087VX  26070.40839120  .00000000  00000+0  00000-0 0  9996
2 75399  98.4000 288.0000 0000000   0.0000  72.0000 14.41059505    18
CTC1_L_00525026-01
1 75400U 26140BM  26070.40839120  .00000000  00000+0  00000-0 0  9990
2 75400  98.4000 300.0000 0000000   0.0000 120.0000 14.41059505    10
CTC1_L_00525027-01
1 75401U 23394AJ  26070.40839120  .00000000  00000+0  00000-0 0  9999
2 75401  98.4000 312.0000 0000000   0.0000 168.0000 14.41059505    16
CTC1_L_00525028-01
1 75402U 23525KB  26070.40839120  .00000000  00000+0  00000-0 0  9996
2 75402  98.4000 324.0000 0000000   0.0000 216.0000 14.41059505    14
CTC1_L_00525029-01
1 75403U 23309LO  26070.40839120  .00000000  00000+0  00000-0 0  9997
2 75403  98.4000 336.0000 0000000   0.0000 264.0000 14.41059505    11
CTC1_L_00525030-01
1 75404U 22617GP  26070.40839120  .00000000  00000+0  00000-0 0  9999
2 75404  98.4000 348.0000 0000000   0.0000 312.0000 14.41059505    19
